NORAD_CAT_ID,OBJECT_NAME,OBJECT_TYPE,EPOCH,MEAN_MOTION,ECCENTRICITY,INCLINATION,RA_OF_ASC_NODE,ARG_OF_PERICENTER,MEAN_ANOMALY,BSTAR,MEAN_MOTION_DOT,MEAN_MOTION_DDOT,TLE_LINE0,TLE_LINE1,TLE_LINE2,SEMIMAJOR_AXIS,PERIOD,APOGEE,PERIGEE,DECAYED
55936.0,STARLINK-5882,PAYLOAD,2024-01-24 17:10:27,14.97229247,0.0002618,70.0003,58.2771,288.6342,71.4532,0.0051184,0.00059779,0.0,0 STARLINK-5882,1 55936U 23037Y   24024.71559034  .00059779  00000-0  51184-2 0  9997,2 55936  70.0003  58.2771 0002618 288.6342  71.4532 14.97229247 48393,6953.599,96.178,577.284,573.644,0.0
55936.0,STARLINK-5882,PAYLOAD,2024-01-25 02:47:18,14.97491215,0.000313,69.9997,57.2684,289.6114,70.4707,0.0072188,0.00085232,0.0,0 STARLINK-5882,1 55936U 23037Y   24025.11618412  .00085232  00000-0  72188-2 0  9998,2 55936  69.9997  57.2684 0003130 289.6114  70.4707 14.97491215 48795,6952.788,96.161,576.829,572.477,0.0
55936.0,STARLINK-5882,PAYLOAD,2024-01-25 14:00:01,14.98320625,0.0002687,70.0005,56.0912,275.8438,81.9802,0.00091636,0.00010855,0.0,0 STARLINK-5882,1 55936U 23037Y   24025.58334491  .00010855  00000-0  91636-3 0  9990,2 55936  70.0005  56.0912 0002687 275.8438  81.9802 14.98320625 48869,6950.222,96.108,573.954,570.219,0.0
55936.0,STARLINK-5882,PAYLOAD,2024-01-26 00:00:00,14.98304754,0.0002643,70.0006,55.0406,268.8378,175.8306,0.0053476,0.00064259,0.0,0 STARLINK-5882,1 55936U 23037Y   24026.00001157  .00064259  00000-0  53476-2 0  9994,2 55936  70.0006  55.0406 0002643 268.8378 175.8306 14.98304754  5752,6950.271,96.109,573.973,570.299,0.0
55936.0,STARLINK-5882,PAYLOAD,2024-01-26 14:00:01,14.98332304,0.0002727,70.0004,53.5694,276.7737,73.4979,-0.00041814,-5.079e-05,0.0,0 STARLINK-5882,1 55936U 23037Y   24026.58334491 -.00005079  00000-0 -41814-3 0  9998,2 55936  70.0004  53.5694 0002727 276.7737  73.4979 14.98332304  5797,6950.186,96.107,573.946,570.155,0.0
55936.0,STARLINK-5882,PAYLOAD,2024-01-26 22:00:00,14.98291494,0.000269,70.0005,52.7288,268.6857,79.08,0.0064299,0.00077403,0.0,0 STARLINK-5882,1 55936U 23037Y   24026.91667824  .00077403  00000-0  64299-2 0  9993,2 55936  70.0005  52.7288 0002690 268.6857  79.0800 14.98291494 49067,6950.312,96.109,574.047,570.307,0.0
55936.0,STARLINK-5882,PAYLOAD,2024-01-27 14:00:01,14.98331723,0.0002747,70.0004,51.0475,274.1324,68.5978,-0.00083462,-0.00010038,0.0,0 STARLINK-5882,1 55936U 23037Y   24027.58334491 -.00010038  00000-0 -83462-3 0  9995,2 55936  70.0004  51.0475 0002747 274.1324  68.5978 14.98331723 49160,6950.188,96.107,573.962,570.143,0.0
55936.0,STARLINK-5882,PAYLOAD,2024-01-27 22:00:00,14.98289819,0.0002727,70.0006,50.207,266.0389,74.1836,0.0066886,0.00080554,0.0,0 STARLINK-5882,1 55936U 23037Y   24027.91667824  .00080554  00000-0  66886-2 0  9999,2 55936  70.0006  50.2070 0002727 266.0389  74.1836 14.98289819  5743,6950.317,96.11,574.078,570.287,0.0
55936.0,STARLINK-5882,PAYLOAD,2024-01-28 14:00:01,14.98334224,0.0002725,70.0006,48.5257,276.0614,59.1679,-0.00064555,-7.788e-05,0.0,0 STARLINK-5882,1 55936U 23037Y   24028.58335648 -.00007788  00000-0 -64555-3 0  9991,2 55936  70.0006  48.5257 0002725 276.0614  59.1679 14.98334224 49310,6950.18,96.107,573.939,570.151,0.0
55936.0,STARLINK-5882,PAYLOAD,2024-01-28 22:00:00,14.98321562,0.0002644,70.0009,47.6852,271.1485,61.5422,0.0066931,0.00080675,0.0,0 STARLINK-5882,1 55936U 23037Y   24028.91667824  .00080675  00000-0  66931-2 0  9995,2 55936  70.0009  47.6852 0002644 271.1485  61.5422 14.98321562 49365,6950.219,96.108,573.922,570.246,0.0
55936.0,STARLINK-5882,PAYLOAD,2024-01-29 02:55:43,14.98341205,0.0002644,70.0,47.1685,274.5259,85.5598,8.5861e-05,9.32e-06,0.0,0 STARLINK-5882,1 55936U 23037Y   24029.12203159  .00000932  00000-0  85861-4 0  9999,2 55936  70.0000  47.1685 0002644 274.5259  85.5598 14.98341205 49390,6950.158,96.106,573.861,570.186,0.0
55936.0,STARLINK-5882,PAYLOAD,2024-01-29 10:56:22,14.98351951,0.0002552,69.9998,46.3265,274.5985,85.4883,0.00020438,2.348e-05,0.0,0 STARLINK-5882,1 55936U 23037Y   24029.45581835  .00002348  00000-0  20438-3 0  9996,2 55936  69.9998  46.3265 0002552 274.5985  85.4883 14.98351951 49443,6950.125,96.106,573.764,570.216,0.0
55936.0,STARLINK-5882,PAYLOAD,2024-01-30 04:33:52,14.98333528,0.0002053,70.0033,44.4774,220.1078,139.993,6.7173e-05,7.09e-06,0.0,0 STARLINK-5882,1 55936U 23037Y   24030.19018827  .00000709  00000-0  67173-4 0  9992,2 55936  70.0033  44.4774 0002053 220.1078 139.9930 14.98333528 49556,6950.182,96.107,573.474,570.62,0.0
55936.0,STARLINK-5882,PAYLOAD,2024-01-30 10:58:23,14.98347762,0.0002761,69.9998,43.8017,272.2766,87.8076,0.00016935,1.929e-05,0.0,0 STARLINK-5882,1 55936U 23037Y   24030.45721603  .00001929  00000-0  16935-3 0  9998,2 55936  69.9998  43.8017 0002761 272.2766  87.8076 14.98347762 49595,6950.138,96.106,573.922,570.084,0.0
55936.0,STARLINK-5882,PAYLOAD,2024-01-31 02:59:45,14.98333805,0.000296,69.9995,42.1179,275.4925,84.5896,-0.00027502,-3.373e-05,0.0,0 STARLINK-5882,1 55936U 23037Y   24031.12483306 -.00003373  00000-0 -27502-3 0  9997,2 55936  69.9995  42.1179 0002960 275.4925  84.5896 14.98333805 49694,6950.181,96.107,574.103,569.989,0.0
55936.0,STARLINK-5882,PAYLOAD,2024-01-31 11:00:26,14.98326527,0.0002859,69.9993,41.2761,267.402,92.6812,-0.00019564,-2.426e-05,0.0,0 STARLINK-5882,1 55936U 23037Y   24031.45863511 -.00002426  00000-0 -19564-3 0  9990,2 55936  69.9993  41.2761 0002859 267.4020  92.6812 14.98326527 49403,6950.204,96.107,574.056,570.082,0.0
55936.0,STARLINK-5882,PAYLOAD,2024-02-01 03:01:47,14.98327154,0.0003182,69.9993,39.5927,272.784,87.2954,-0.00024758,-3.046e-05,0.0,0 STARLINK-5882,1 55936U 23037Y   24032.12623980 -.00003046  00000-0 -24758-3 0  9999,2 55936  69.9993  39.5927 0003182 272.7840  87.2954 14.98327154 49848,6950.202,96.107,574.278,569.855,0.0
55936.0,STARLINK-5882,PAYLOAD,2024-02-01 09:26:19,14.98329415,0.0003082,69.9995,38.9195,272.0901,87.9906,-0.00019697,-2.442e-05,0.0,0 STARLINK-5882,1 55936U 23037Y   24032.39327743 -.00002442  00000-0 -19697-3 0  9991,2 55936  69.9995  38.9195 0003082 272.0901  87.9906 14.98329415 49543,6950.195,96.107,574.202,569.918,0.0
55936.0,STARLINK-5882,PAYLOAD,2024-02-02 04:39:56,14.98318892,0.0002989,69.9997,36.8999,267.3296,92.7521,9.6351e-05,1.056e-05,0.0,0 STARLINK-5882,1 55936U 23037Y   24033.19439913  .00001056  00000-0  96351-4 0  9994,2 55936  69.9997  36.8999 0002989 267.3296  92.7521 14.98318892 50000,6950.227,96.108,574.17,570.015,0.0
55936.0,STARLINK-5882,PAYLOAD,2024-02-02 09:28:20,14.98321396,0.0002907,70.0,36.3952,265.7471,94.3356,0.00012329,1.378e-05,0.0,0 STARLINK-5882,1 55936U 23037Y   24033.39467804  .00001378  00000-0  12329-3 0  9995,2 55936  70.0000  36.3952 0002907 265.7471  94.3356 14.98321396 49699,6950.219,96.108,574.105,570.064,0.0
55936.0,STARLINK-5882,PAYLOAD,2024-02-03 09:30:21,14.98327076,0.0002908,70.0,33.8702,265.4943,94.5884,9.8236e-05,1.079e-05,0.0,0 STARLINK-5882,1 55936U 23037Y   24034.39607887  .00001079  00000-0  98236-4 0  9993,2 55936  70.0000  33.8702 0002908 265.4943  94.5884 14.98327076 50181,6950.202,96.107,574.088,570.046,0.0
55936.0,STARLINK-5882,PAYLOAD,2024-02-04 09:32:22,14.98332267,0.000284,70.0002,31.3454,264.8909,95.1926,3.4643e-05,3.2e-06,0.0,0 STARLINK-5882,1 55936U 23037Y   24035.39747730  .00000320  00000-0  34643-4 0  9996,2 55936  70.0002  31.3454 0002840 264.8909  95.1926 14.98332267 50339,6950.186,96.107,574.025,570.077,0.0
55936.0,STARLINK-5882,PAYLOAD,2024-02-05 09:34:23,14.98327996,0.0002769,70.0007,28.8216,264.021,96.0633,-2.5725e-05,-4e-06,0.0,0 STARLINK-5882,1 55936U 23037Y   24036.39888146 -.00000400  00000-0 -25725-4 0  9996,2 55936  70.0007  28.8216 0002769 264.0210  96.0633 14.98327996 50482,6950.199,96.107,573.989,570.14,0.0
55936.0,STARLINK-5882,PAYLOAD,2024-02-06 03:11:51,14.98334861,0.0002831,70.0007,26.9698,265.5675,94.516,2.2456e-05,1.75e-06,0.0,0 STARLINK-5882,1 55936U 23037Y   24037.13323460  .00000175  00000-0  22456-4 0  9997,2 55936  70.0007  26.9698 0002831 265.5675  94.5160 14.98334861 50595,6950.178,96.107,574.01,570.075,0.0
55936.0,STARLINK-5882,PAYLOAD,2024-02-06 09:36:23,14.98336882,0.0002796,70.0009,26.2967,264.9198,95.1641,4.5584e-05,4.51e-06,0.0,0 STARLINK-5882,1 55936U 23037Y   24037.40027175  .00000451  00000-0  45584-4 0  9995,2 55936  70.0009  26.2967 0002796 264.9198  95.1641 14.98336882 50295,6950.172,96.107,573.98,570.093,0.0
55936.0,STARLINK-5882,PAYLOAD,2024-02-07 03:13:52,14.98326143,0.0002733,70.0013,24.446,262.0524,98.0325,-7.9651e-06,-1.88e-06,0.0,0 STARLINK-5882,1 55936U 23037Y   24038.13463934 -.00000188  00000-0 -79651-5 0  9995,2 55936  70.0013  24.4460 0002733 262.0524  98.0325 14.98326143 50741,6950.205,96.107,573.969,570.17,0.0
55936.0,STARLINK-5882,PAYLOAD,2024-02-07 08:02:17,14.98326765,0.0002724,70.0013,23.941,261.8467,98.2383,-2.225e-06,-1.19e-06,0.0,0 STARLINK-5882,1 55936U 23037Y   24038.33491909 -.00000119  00000-0 -22250-5 0  9997,2 55936  70.0013  23.9410 0002724 261.8467  98.2383 14.98326765 50435,6950.203,96.107,573.961,570.175,0.0
55936.0,STARLINK-5882,PAYLOAD,2024-02-07 22:27:29,14.98332273,0.0002651,70.0014,22.4246,265.3748,94.7108,-3.6918e-05,-5.33e-06,0.0,0 STARLINK-5882,1 55936U 23037Y   24038.93575735 -.00000533  00000-0 -36918-4 0  9998,2 55936  70.0014  22.4246 0002651 265.3748  94.7108 14.98332273 50524,6950.186,96.107,573.893,570.208,0.0
55936.0,STARLINK-5882,PAYLOAD,2024-02-08 09:40:25,14.98331946,0.0002731,70.0013,21.2462,265.0182,95.0666,-3.9658e-05,-5.66e-06,0.0,0 STARLINK-5882,1 55936U 23037Y   24039.40307703 -.00000566  00000-0 -39658-4 0  9999,2 55936  70.0013  21.2462 0002731 265.0182  95.0666 14.98331946 50932,6950.187,96.107,573.95,570.154,0.0
55936.0,STARLINK-5882,PAYLOAD,2024-02-09 08:06:18,14.98329983,0.0002798,70.0011,18.8895,265.4946,94.5893,4.492e-05,4.43e-06,0.0,0 STARLINK-5882,1 55936U 23037Y   24040.33771596  .00000443  00000-0  44920-4 0  9998,2 55936  70.0011  18.8895 0002798 265.4946  94.5893 14.98329983 50739,6950.193,96.107,574.003,570.113,0.0
